DMSP 5D-3 F16 (USA 172) 
1 28054U 03048A   26047.50628449  .00000145  00000+0  99313-4 0  9999
2 28054  99.0010  70.4722 0008057 125.2517  32.9862 14.14453567152429
METEOSAT-9 (MSG-2)      
1 28912U 05049B   26047.12000352  .00000131  00000+0  00000+0 0  9995
2 28912   9.0859  55.3424 0001761 213.2676 326.3548  1.00270016  5788
DMSP 5D-3 F17 (USA 191) 
1 29522U 06050A   26047.46411212  .00000168  00000+0  10940-3 0  9992
2 29522  98.7408  56.4921 0010839  45.5731 314.6328 14.14954046995346
FENGYUN 3A              
1 32958U 08026A   26047.44877395  .00000108  00000+0  71655-4 0  9995
2 32958  98.6773 350.6182 0009706 112.4972 247.7233 14.19539514918279
GOES 14                 
1 35491U 09033A   26047.43798509  .00000137  00000+0  00000+0 0  9990
2 35491   1.3757  84.6814 0001840 291.2640 138.6778  1.00117132  5387
DMSP 5D-3 F18 (USA 210) 
1 35951U 09057A   26047.49653361  .00000280  00000+0  16823-3 0  9992
2 35951  98.8927  28.6021 0010135 231.2627 128.7640 14.14821355842523
EWS-G2 (GOES 15)        
1 36411U 10008A   26047.18725398  .00000038  00000+0  00000+0 0  9995
2 36411   0.9689  85.5355 0004343 204.5383 345.2396  1.00276323 58424
COMS 1                  
1 36744U 10032A   26047.50744300 -.00000340  00000+0  00000+0 0  9998
2 36744   4.4948  77.1209 0000933 269.8379 110.3908  1.00271868 49884
FENGYUN 3B              
1 37214U 10059A   26047.52994823  .00000124  00000+0  87523-4 0  9998
2 37214  98.9815  92.9398 0022261 166.1848 330.4130 14.14812106790363
SUOMI NPP               
1 37849U 11061A   26047.45678056  .00000096  00000+0  66530-4 0  9998
2 37849  98.7845 349.2315 0001191   2.0852 358.0329 14.19537237741318
METEOSAT-10 (MSG-3)     
1 38552U 12035B   26047.37197569 -.00000001  00000+0  00000+0 0  9990
2 38552   4.3837  61.5312 0002261 291.5652 287.2301  1.00274537 49644
METOP-B                 
1 38771U 12049A   26047.46852831  .00000126  00000+0  77650-4 0  9995
2 38771  98.6689 101.2814 0001917   1.8404 358.2780 14.21437337696117
INSAT-3D                
1 39216U 13038B   26047.42195169 -.00000335  00000+0  00000+0 0  9992
2 39216   1.6123  84.1635 0001527 228.4607 115.1551  1.00268718 45862
FENGYUN 3C              
1 39260U 13052A   26047.54401160  .00000130  00000+0  87190-4 0  9993
2 39260  98.4855  27.0416 0014999  15.1033 345.0587 14.15721518641497
METEOR-M 2              
1 40069U 14037A   26047.56580148  .00000353  00000+0  18071-3 0  9990
2 40069  98.4983  27.6585 0006519  35.8025 324.3588 14.21420066602185
HIMAWARI-8              
1 40267U 14060A   26047.42411836 -.00000271  00000+0  00000+0 0  9997
2 40267   0.0106 148.2839 0000472 161.5489 129.9187  1.00270935 41548
FENGYUN 2G              
1 40367U 14090A   26047.52590465 -.00000297  00000+0  00000+0 0  9996
2 40367   5.3319  74.2925 0001798 145.5943 215.2741  1.00282086 40797
METEOSAT-11 (MSG-4)     
1 40732U 15034A   26047.32687786  .00000068  00000+0  00000+0 0  9997
2 40732   2.8975  71.7780 0001197 250.7148 311.0526  1.00271197  6006
ELEKTRO-L 2             
1 41105U 15074A   26047.32211118 -.00000112  00000+0  00000+0 0  9999
2 41105   6.3884  72.0212 0003253 236.3990 299.3738  1.00272267 37290
INSAT-3DR               
1 41752U 16054A   26047.41094498 -.00000072  00000+0  00000+0 0  9991
2 41752   0.0788  92.6414 0013421 186.6598  89.0121  1.00271587 34609
HIMAWARI-9              
1 41836U 16064A   26047.42822602 -.00000270  00000+0  00000+0 0  9992
2 41836   0.0232 199.4337 0001076 155.4461  86.4524  1.00272618 33997
GOES 16                 
1 41866U 16071A   26047.40808580 -.00000087  00000+0  00000+0 0  9996
2 41866   0.1473  92.9720 0002684 206.7455 248.8844  1.00274018 33894
FENGYUN 4A              
1 41882U 16077A   26047.53804630 -.00000353  00000+0  00000+0 0  9992
2 41882   2.0137  81.6517 0006097 130.1229 252.2094  1.00271011 33728
CYGFM05                 
1 41884U 16078A   26047.21033537  .00024936  00000+0  41463-3 0  9994
2 41884  34.9597 338.4356 0005479  72.8213 287.3109 15.51061263509929
CYGFM04                 
1 41885U 16078B   26047.11082540  .00028398  00000+0  42479-3 0  9996
2 41885  34.9341 311.8833 0004390 110.9828 249.1365 15.53971840510104
CYGFM02                 
1 41886U 16078C   26047.10449126  .00031087  00000+0  43239-3 0  9997
2 41886  34.9427 309.2481 0005491 112.3744 247.7562 15.55927344510246
CYGFM01                 
1 41887U 16078D   26047.17905615  .00025510  00000+0  41801-3 0  9992
2 41887  34.9430 340.5443 0005406  61.2197 298.9068 15.51465226509864
CYGFM08                 
1 41888U 16078E   26047.17944066  .00027074  00000+0  42111-3 0  9998
2 41888  34.9454 322.7040 0006536  94.7325 265.4145 15.52894823510109
CYGFM07                 
1 41890U 16078G   26047.15539901  .00027772  00000+0  42174-3 0  9991
2 41890  34.9469 311.4501 0004899 119.1931 240.9283 15.53560146510122
CYGFM03                 
1 41891U 16078H   26047.12542767  .00027449  00000+0  41888-3 0  9995
2 41891  34.9423 313.6159 0004282  96.4387 263.6824 15.53429997510091
FENGYUN 3D              
1 43010U 17072A   26047.49329775 -.00000048  00000+0 -10906-5 0  9994
2 43010  98.9983  19.8227 0002376  51.7572 308.3817 14.19707607427869
NOAA 20 (JPSS-1)        
1 43013U 17073A   26047.40085247  .00000062  00000+0  50549-4 0  9992
2 43013  98.7668 348.0030 0000168 149.1100 211.0086 14.19530238427339
GOES 17                 
1 43226U 18022A   26047.44985848 -.00000179  00000+0  00000+0 0  9995
2 43226   0.6251  87.9761 0002309 212.5275 278.3894  1.00273052 29214
FENGYUN 2H              
1 43491U 18050A   26047.48322534 -.00000123  00000+0  00000+0 0  9990
2 43491   2.7180  80.5724 0001703 168.9813 149.8550  1.00274578 28224
METOP-C                 
1 43689U 18087A   26047.35294858  .00000128  00000+0  78477-4 0  9994
2 43689  98.6814 109.0827 0001972 129.2253 230.9100 14.21513297377667
GEO-KOMPSAT-2A          
1 43823U 18100A   26047.42169169 -.00000340  00000+0  00000+0 0  9993
2 43823   0.0181  91.9420 0001314 318.6153  15.9034  1.00270533 26419
METEOR-M2 2             
1 44387U 19038A   26047.56017575  .00000260  00000+0  13254-3 0  9997
2 44387  98.9048  33.1251 0001845  39.6413 320.4900 14.24325743344122
ARKTIKA-M 1             
1 47719U 21016A   26045.87266090 -.00000137  00000+0  00000+0 0  9993
2 47719  63.1964  75.1209 7235666 269.3805  15.2604  2.00622963 36334
FENGYUN 3E              
1 49008U 21062A   26047.56179756  .00000318  00000+0  17065-3 0  9990
2 49008  98.7499  52.3137 0002698  78.8323 281.3156 14.19891722239460
GOES 18                 
1 51850U 22021A   26047.52693069  .00000000  00000+0  00000+0 0  9993
2 51850   0.0235 105.2966 0000592 282.4041 171.5167  1.00269975  5380
NOAA 21 (JPSS-2)        
1 54234U 22150A   26047.43579351  .00000081  00000+0  59452-4 0  9991
2 54234  98.7531 347.9485 0001889 145.7710 214.3588 14.19546267169411
METEOSAT-12 (MTG-I1)    
1 54743U 22170C   26047.37197569 -.00000003  00000+0  00000+0 0  9993
2 54743   0.7229  26.6195 0001800 276.9974 336.2853  1.00272233 11762
TIANMU-1 03             
1 55973U 23039A   26047.48909433  .00018289  00000+0  41137-3 0  9991
2 55973  97.5143 217.1081 0003397 163.7946 196.3410 15.43370048162196
TIANMU-1 04             
1 55974U 23039B   26047.51805666  .00018754  00000+0  41621-3 0  9994
2 55974  97.5075 216.3046 0004109 161.3495 198.7904 15.43761556162202
TIANMU-1 05             
1 55975U 23039C   26047.52971166  .00018123  00000+0  40843-3 0  9990
2 55975  97.5122 216.8092 0002959 184.3096 175.8126 15.43315659162183
TIANMU-1 06             
1 55976U 23039D   26047.51829124  .00018669  00000+0  41391-3 0  9990
2 55976  97.5132 217.3188 0003328 179.6034 180.5216 15.43795734162209
FENGYUN 3G              
1 56232U 23055A   26047.54075205  .00030120  00000+0  47520-3 0  9996
2 56232  49.9916 248.1566 0010410 279.7837  80.1954 15.53161151161250
METEOR-M2 3             
1 57166U 23091A   26047.52796946  .00000024  00000+0  29214-4 0  9994
2 57166  98.6263 104.8849 0004530 148.6521 211.4929 14.24035382137342
TIANMU-1 07             
1 57399U 23101A   26047.51396903  .00008009  00000+0  28584-3 0  9991
2 57399  97.2773 100.9280 0003793 185.2822 174.8379 15.29122893143201
TIANMU-1 08             
1 57400U 23101B   26047.48386378  .00008566  00000+0  30553-3 0  9992
2 57400  97.2763 100.6801 0005398 187.7988 172.3170 15.29115096143199
TIANMU-1 09             
1 57401U 23101C   26047.46618361  .00008416  00000+0  29886-3 0  9992
2 57401  97.2719 100.1487 0004707 188.5792 171.5369 15.29269091143197
TIANMU-1 10             
1 57402U 23101D   26047.50067366  .00008641  00000+0  30675-3 0  9999
2 57402  97.2798 101.1018 0006321 193.8200 166.2868 15.29263793143191
FENGYUN 3F              
1 57490U 23111A   26047.47760250  .00000075  00000+0  55668-4 0  9998
2 57490  98.6973 119.6778 0001494  92.4029 267.7318 14.19914238131733
ARKTIKA-M 2             
1 58584U 23198A   26047.12887947  .00000173  00000+0  00000+0 0  9997
2 58584  63.2212 167.7612 6873988 267.8417  18.8504  2.00613020 15895
TIANMU-1 11             
1 58645U 23205A   26047.55656670  .00006934  00000+0  27547-3 0  9998
2 58645  97.3562  71.0535 0010903  74.5485 285.6957 15.25576541119126
TIANMU-1 12             
1 58646U 23205B   26047.52230487  .00007356  00000+0  29296-3 0  9992
2 58646  97.3550  70.8044 0008976  61.7597 298.4546 15.25492695119106
TIANMU-1 13             
1 58647U 23205C   26047.55388630  .00007272  00000+0  28925-3 0  9995
2 58647  97.3577  71.0651 0008837  45.9935 314.2030 15.25540324119107
TIANMU-1 14             
1 58648U 23205D   26047.53814159  .00007638  00000+0  30376-3 0  9993
2 58648  97.3511  70.3378 0009728  48.9058 311.3019 15.25518513119103
TIANMU-1 19             
1 58660U 23208A   26047.46856418  .00010883  00000+0  38458-3 0  9991
2 58660  97.4380 163.4434 0005538  36.1598 324.0016 15.29358530118867
TIANMU-1 20             
1 58661U 23208B   26047.46936728  .00011104  00000+0  37805-3 0  9997
2 58661  97.4319 163.9567 0007888  41.4901 318.6938 15.30550315118947
TIANMU-1 21             
1 58662U 23208C   26047.49514686  .00011776  00000+0  37745-3 0  9994
2 58662  97.4370 166.1780 0007597  36.5207 323.6552 15.32484930119061
TIANMU-1 22             
1 58663U 23208D   26047.54657756  .00009891  00000+0  35357-3 0  9999
2 58663  97.4376 163.5459 0004668  60.5580 299.6125 15.29009549118881
TIANMU-1 15             
1 58700U 24004A   26047.53582253  .00007584  00000+0  30197-3 0  9998
2 58700  97.4649 233.8088 0008184  59.1583 301.0459 15.25502328117379
TIANMU-1 16             
1 58701U 24004B   26047.51974987  .00007810  00000+0  31068-3 0  9996
2 58701  97.4589 233.1314 0006637  62.9215 297.2699 15.25533267117371
TIANMU-1 17             
1 58702U 24004C   26047.50258946  .00007456  00000+0  29645-3 0  9990
2 58702  97.4622 233.5577 0005838  64.9151 295.2692 15.25571033117361
TIANMU-1 18             
1 58703U 24004D   26047.55268756  .00007264  00000+0  28930-3 0  9999
2 58703  97.4640 233.8158 0005248  64.6280 295.5501 15.25528479117374
INSAT-3DS               
1 58990U 24033A   26047.41250498 -.00000151  00000+0  00000+0 0  9991
2 58990   0.0938 265.7091 0002255  87.7459  23.4974  1.00270614 45859
METEOR-M2 4             
1 59051U 24039A   26047.54631259  .00000029  00000+0  32839-4 0  9991
2 59051  98.6867   8.4571 0007457 150.9792 209.1801 14.22413717102115
GOES 19                 
1 60133U 24119A   26047.45271852 -.00000244  00000+0  00000+0 0  9992
2 60133   0.0061 304.3646 0001005  71.7749 218.0775  1.00272333  5757
FENGYUN 3H              
1 65815U 25219A   26047.47402987  .00000072  00000+0  54436-4 0  9998
2 65815  98.6659 350.6631 0001596  77.5101 282.6254 14.19926719 20253

